{"result":{"limit":1000,"offset":0,"count":12,"sort":"","results":[{"fax":"2560-4894","tel":"2581-1060","addr":"臺北市中山區中山北路2段44巷2號","url":"http:\/\/cssc.cyc.org.tw","zipcode":"10412","_id":1,"name":"中山運動中心"},{"fax":"2820-6070","tel":"2820-2880","addr":"臺北市北投區石牌路1段39巷100號","url":"http:\/\/www.btsport.com.tw\/","zipcode":"11271","_id":2,"name":"北投運動中心"},{"fax":"2396-3357","tel":"2396-3358","addr":"臺北市中正區信義路1段1號","url":"http:\/\/www.tpejjsports.com.tw","zipcode":"10048","_id":3,"name":"中正運動中心"},{"fax":"2653-8311","tel":"2653-2279","addr":"臺北市南港區玉成街69號","url":"http:\/\/ngsc.cyc.org.tw","zipcode":"11577","_id":4,"name":"南港運動中心"},{"fax":"2382-6393","tel":"2375-9900","addr":"臺北市萬華區西寧南路6之1號","url":"http:\/\/whsc.com.tw","zipcode":"10841","_id":5,"name":"萬華運動中心"},{"fax":"2880-5966","tel":"2880-6066","addr":"臺北市士林區士商路一號","url":"http:\/\/www.slsc-taipei.org","zipcode":"11168","_id":6,"name":"士林運動中心"},{"fax":"2657-9782","tel":"2627-7776","addr":"臺北市內湖區洲子街12號","url":"http:\/\/www.nhsports.com.tw\/","zipcode":"11493","_id":7,"name":"內湖運動中心"},{"fax":"8786-1911","tel":"8786-1911","addr":"臺北市信義區松勤街100號","url":"http:\/\/xysc.cyc.org.tw","zipcode":"11047","_id":8,"name":"信義運動中心"},{"fax":"2579-8203","tel":"6617-6789","addr":"臺北市敦化北路1號","url":"http:\/\/www.sssc.com.tw","zipcode":"10549","_id":9,"name":"松山運動中心"},{"fax":"","tel":"","addr":"臺北市大龍街51號","url":"","zipcode":"10361","_id":10,"name":"大同運動中心"},{"fax":"2377-0331","tel":"2377-0300","addr":"臺北市辛亥路3段55號","url":"http:\/\/dasc.cyc.org.tw","zipcode":"10671","_id":11,"name":"大安運動中心"},{"fax":"2230-8676","tel":"2230-8268","addr":"臺北市文山區興隆路3段222號","url":"http:\/\/wssc.cyc.org.tw","zipcode":"11698","_id":12,"name":"文山運動中心"}]}}